{"type": "FeatureCollection", "features": [{"type": "Feature", "properties": {"norad_id": 22675, "name": "COSMOS 2251", "group": "cosmos-2251-debris", "lat": 54.38787296029622, "lon": 98.63505333786216, "alt_km": 778.444509067298, "timestamp": "2025-12-20T05:41:50.423586+00:00", "meta": {"OBJECT_NAME": "COSMOS 2251", "OBJECT_ID": "1993-036A", "EPOCH": "2025-12-19T05:40:39.578880", "MEAN_MOTION": 14.33206643, "ECCENTRICITY": 0.0024218, "INCLINATION": 74.0399, "RA_OF_ASC_NODE": 304.0128, "ARG_OF_PERICENTER": 24.4587, "MEAN_ANOMALY": 335.7708, "EPHEMERIS_TYPE": 0, "CLASSIFICATION_TYPE": "U", "NORAD_CAT_ID": 22675, "ELEMENT_SET_NO": 999, "REV_AT_EPOCH": 69866, "BSTAR": 3.4708e-05, "MEAN_MOTION_DOT": 7e-07, "MEAN_MOTION_DDOT": 0}, "tle": {"line1": "1 22675U 93036A   25353.23656920  .00000070  00000+0  34708-4 0  9996", "line2": "2 22675  74.0399 304.0128 0024218  24.4587 335.7708 14.33206643698661"}}, "geometry": {"type": "Point", "coordinates": [98.63505333786216, 54.38787296029622]}}, {"type": "Feature", "properties": {"norad_id": 33757, "name": "COSMOS 2251 DEB", "group": "cosmos-2251-debris", "lat": 34.40321650820091, "lon": 118.61867993249145, "alt_km": 791.6114053279925, "timestamp": "2025-12-20T05:41:50.423610+00:00", "meta": {"OBJECT_NAME": "COSMOS 2251 DEB", "OBJECT_ID": "1993-036E", "EPOCH": "2025-12-19T22:35:03.314112", "MEAN_MOTION": 14.32582723, "ECCENTRICITY": 0.00155071, "INCLINATION": 74.0373, "RA_OF_ASC_NODE": 310.463, "ARG_OF_PERICENTER": 322.5793, "MEAN_ANOMALY": 93.4452, "EPHEMERIS_TYPE": 0, "CLASSIFICATION_TYPE": "U", "NORAD_CAT_ID": 33757, "ELEMENT_SET_NO": 999, "REV_AT_EPOCH": 88099, "BSTAR": 3.0028797e-05, "MEAN_MOTION_DOT": 5.5e-07, "MEAN_MOTION_DDOT": 0}, "tle": {"line1": "1 33757U 93036E   25353.94101058  .00000055  00000+0  30029-4 0  9999", "line2": "2 33757  74.0373 310.4630 0015507 322.5793  93.4452 14.32582723880995"}}, "geometry": {"type": "Point", "coordinates": [118.61867993249145, 34.40321650820091]}}, {"type": "Feature", "properties": {"norad_id": 33758, "name": "COSMOS 2251 DEB", "group": "cosmos-2251-debris", "lat": -58.65172506259559, "lon": 48.95522881433136, "alt_km": 715.9179863922363, "timestamp": "2025-12-20T05:41:50.423625+00:00", "meta": {"OBJECT_NAME": "COSMOS 2251 DEB", "OBJECT_ID": "1993-036F", "EPOCH": "2025-12-19T22:30:12.186720", "MEAN_MOTION": 14.51633127, "ECCENTRICITY": 0.00172588, "INCLINATION": 74.0265, "RA_OF_ASC_NODE": 201.472, "ARG_OF_PERICENTER": 267.6714, "MEAN_ANOMALY": 209.2111, "EPHEMERIS_TYPE": 0, "CLASSIFICATION_TYPE": "U", "NORAD_CAT_ID": 33758, "ELEMENT_SET_NO": 999, "REV_AT_EPOCH": 88409, "BSTAR": 0.00049671582, "MEAN_MOTION_DOT": 1.967e-05, "MEAN_MOTION_DDOT": 0}, "tle": {"line1": "1 33758U 93036F   25353.93764105  .00001967  00000+0  49672-3 0  9993", "line2": "2 33758  74.0265 201.4720 0017258 267.6714 209.2111 14.51633127884092"}}, "geometry": {"type": "Point", "coordinates": [48.95522881433136, -58.65172506259559]}}, {"type": "Feature", "properties": {"norad_id": 33760, "name": "COSMOS 2251 DEB", "group": "cosmos-2251-debris", "lat": 60.715845827671224, "lon": 56.996205951536, "alt_km": 771.5981694398697, "timestamp": "2025-12-20T05:41:50.423639+00:00", "meta": {"OBJECT_NAME": "COSMOS 2251 DEB", "OBJECT_ID": "1993-036H", "EPOCH": "2025-12-19T22:51:20.912832", "MEAN_MOTION": 14.35677015, "ECCENTRICITY": 0.00202207, "INCLINATION": 74.0322, "RA_OF_ASC_NODE": 268.2197, "ARG_OF_PERICENTER": 4.9385, "MEAN_ANOMALY": 76.9297, "EPHEMERIS_TYPE": 0, "CLASSIFICATION_TYPE": "U", "NORAD_CAT_ID": 33760, "ELEMENT_SET_NO": 999, "REV_AT_EPOCH": 88228, "BSTAR": 7.4851709e-05, "MEAN_MOTION_DOT": 1.9e-06, "MEAN_MOTION_DDOT": 0}, "tle": {"line1": "1 33760U 93036H   25353.95232538  .00000190  00000+0  74852-4 0  9994", "line2": "2 33760  74.0322 268.2197 0020220   4.9385  76.9297 14.35677015882286"}}, "geometry": {"type": "Point", "coordinates": [56.996205951536, 60.715845827671224]}}, {"type": "Feature", "properties": {"norad_id": 33761, "name": "COSMOS 2251 DEB", "group": "cosmos-2251-debris", "lat": -46.303446267977854, "lon": 75.68589599323349, "alt_km": 756.0390182034107, "timestamp": "2025-12-20T05:41:50.423650+00:00", "meta": {"OBJECT_NAME": "COSMOS 2251 DEB", "OBJECT_ID": "1993-036J", "EPOCH": "2025-12-19T11:09:18.014112", "MEAN_MOTION": 14.42563129, "ECCENTRICITY": 0.0023215, "INCLINATION": 74.0354, "RA_OF_ASC_NODE": 239.6857, "ARG_OF_PERICENTER": 319.002, "MEAN_ANOMALY": 219.2979, "EPHEMERIS_TYPE": 0, "CLASSIFICATION_TYPE": "U", "NORAD_CAT_ID": 33761, "ELEMENT_SET_NO": 999, "REV_AT_EPOCH": 88331, "BSTAR": 0.00029325, "MEAN_MOTION_DOT": 9.5e-06, "MEAN_MOTION_DDOT": 0}, "tle": {"line1": "1 33761U 93036J   25353.46479183  .00000950  00000+0  29325-3 0  9998", "line2": "2 33761  74.0354 239.6857 0023215 319.0020 219.2979 14.42563129883312"}}, "geometry": {"type": "Point", "coordinates": [75.68589599323349, -46.303446267977854]}}, {"type": "Feature", "properties": {"norad_id": 33762, "name": "COSMOS 2251 DEB", "group": "cosmos-2251-debris", "lat": -1.7027641953586918, "lon": -64.16825443137067, "alt_km": 771.3824589820997, "timestamp": "2025-12-20T05:41:50.423662+00:00", "meta": {"OBJECT_NAME": "COSMOS 2251 DEB", "OBJECT_ID": "1993-036K", "EPOCH": "2025-12-19T23:20:18.564576", "MEAN_MOTION": 14.33665772, "ECCENTRICITY": 0.00153087, "INCLINATION": 74.042, "RA_OF_ASC_NODE": 296.8033, "ARG_OF_PERICENTER": 356.5119, "MEAN_ANOMALY": 74.9044, "EPHEMERIS_TYPE": 0, "CLASSIFICATION_TYPE": "U", "NORAD_CAT_ID": 33762, "ELEMENT_SET_NO": 999, "REV_AT_EPOCH": 88151, "BSTAR": 3.4811721e-05, "MEAN_MOTION_DOT": 7.1e-07, "MEAN_MOTION_DDOT": 0}, "tle": {"line1": "1 33762U 93036K   25353.97243709  .00000071  00000+0  34812-4 0  9990", "line2": "2 33762  74.0420 296.8033 0015308 356.5119  74.9044 14.33665772881513"}}, "geometry": {"type": "Point", "coordinates": [-64.16825443137067, -1.7027641953586918]}}, {"type": "Feature", "properties": {"norad_id": 33764, "name": "COSMOS 2251 DEB", "group": "cosmos-2251-debris", "lat": -59.608116943383486, "lon": -130.40576285745956, "alt_km": 761.9132542515945, "timestamp": "2025-12-20T05:41:50.423673+00:00", "meta": {"OBJECT_NAME": "COSMOS 2251 DEB", "OBJECT_ID": "1993-036M", "EPOCH": "2025-12-19T20:16:42.098016", "MEAN_MOTION": 14.39524256, "ECCENTRICITY": 0.00236206, "INCLINATION": 74.0335, "RA_OF_ASC_NODE": 259.5372, "ARG_OF_PERICENTER": 223.9642, "MEAN_ANOMALY": 199.0275, "EPHEMERIS_TYPE": 0, "CLASSIFICATION_TYPE": "U", "NORAD_CAT_ID": 33764, "ELEMENT_SET_NO": 999, "REV_AT_EPOCH": 88259, "BSTAR": 0.00021977187, "MEAN_MOTION_DOT": 6.61e-06, "MEAN_MOTION_DDOT": 0}, "tle": {"line1": "1 33764U 93036M   25353.84493169  .00000661  00000+0  21977-3 0  9997", "line2": "2 33764  74.0335 259.5372 0023620 223.9642 199.0275 14.39524256882597"}}, "geometry": {"type": "Point", "coordinates": [-130.40576285745956, -59.608116943383486]}}, {"type": "Feature", "properties": {"norad_id": 33765, "name": "COSMOS 2251 DEB", "group": "cosmos-2251-debris", "lat": -48.30576725550713, "lon": -3.6206627324917595, "alt_km": 498.70835889265527, "timestamp": "2025-12-20T05:41:50.423684+00:00", "meta": {"OBJECT_NAME": "COSMOS 2251 DEB", "OBJECT_ID": "1993-036N", "EPOCH": "2025-12-19T21:16:29.457984", "MEAN_MOTION": 15.10371606, "ECCENTRICITY": 0.00649361, "INCLINATION": 74.0078, "RA_OF_ASC_NODE": 158.3237, "ARG_OF_PERICENTER": 249.2513, "MEAN_ANOMALY": 234.5066, "EPHEMERIS_TYPE": 0, "CLASSIFICATION_TYPE": "U", "NORAD_CAT_ID": 33765, "ELEMENT_SET_NO": 999, "REV_AT_EPOCH": 89726, "BSTAR": 0.0011628452, "MEAN_MOTION_DOT": 0.00020085, "MEAN_MOTION_DDOT": 0}, "tle": {"line1": "1 33765U 93036N   25353.88645206  .00020085  00000+0  11628-2 0  9996", "line2": "2 33765  74.0078 158.3237 0064936 249.2513 234.5066 15.10371606897263"}}, "geometry": {"type": "Point", "coordinates": [-3.6206627324917595, -48.30576725550713]}}, {"type": "Feature", "properties": {"norad_id": 33766, "name": "COSMOS 2251 DEB", "group": "cosmos-2251-debris", "lat": -31.858197281111217, "lon": -48.491479441168224, "alt_km": 796.0681715259107, "timestamp": "2025-12-20T05:41:50.423694+00:00", "meta": {"OBJECT_NAME": "COSMOS 2251 DEB", "OBJECT_ID": "1993-036P", "EPOCH": "2025-12-19T18:39:45.275904", "MEAN_MOTION": 14.34952819, "ECCENTRICITY": 0.00645267, "INCLINATION": 74.1857, "RA_OF_ASC_NODE": 122.1988, "ARG_OF_PERICENTER": 323.6233, "MEAN_ANOMALY": 36.0542, "EPHEMERIS_TYPE": 0, "CLASSIFICATION_TYPE": "U", "NORAD_CAT_ID": 33766, "ELEMENT_SET_NO": 999, "REV_AT_EPOCH": 87846, "BSTAR": 0.00035901119, "MEAN_MOTION_DOT": 1.02e-05, "MEAN_MOTION_DDOT": 0}, "tle": {"line1": "1 33766U 93036P   25353.77760736  .00001020  00000+0  35901-3 0  9990", "line2": "2 33766  74.1857 122.1988 0064526 323.6233  36.0542 14.34952819878464"}}, "geometry": {"type": "Point", "coordinates": [-48.491479441168224, -31.858197281111217]}}, {"type": "Feature", "properties": {"norad_id": 33768, "name": "COSMOS 2251 DEB", "group": "cosmos-2251-debris", "lat": -52.6056107522994, "lon": 49.71131930484588, "alt_km": 1209.9483246638547, "timestamp": "2025-12-20T05:41:50.423705+00:00", "meta": {"OBJECT_NAME": "COSMOS 2251 DEB", "OBJECT_ID": "1993-036R", "EPOCH": "2025-12-19T21:56:19.974912", "MEAN_MOTION": 13.58460669, "ECCENTRICITY": 0.03666692, "INCLINATION": 74.0669, "RA_OF_ASC_NODE": 208.2892, "ARG_OF_PERICENTER": 4.4684, "MEAN_ANOMALY": 94.1964, "EPHEMERIS_TYPE": 0, "CLASSIFICATION_TYPE": "U", "NORAD_CAT_ID": 33768, "ELEMENT_SET_NO": 999, "REV_AT_EPOCH": 83393, "BSTAR": 0.00024991227, "MEAN_MOTION_DOT": 2.61e-06, "MEAN_MOTION_DDOT": 0}, "tle": {"line1": "1 33768U 93036R   25353.91412008  .00000261  00000+0  24991-3 0  9997", "line2": "2 33768  74.0669 208.2892 0366669   4.4684  94.1964 13.58460669833931"}}, "geometry": {"type": "Point", "coordinates": [49.71131930484588, -52.6056107522994]}}]}